FENGYUN 1C DEB          
1 30288U 99025YZ  17345.91639876  .00000654  00000-0  36268-3 0  9998
2 30288  99.4162 204.6582 0028613 283.7537 193.6110 14.14922509560971
